BEIDOU-2 IGSO-1 (C06)   
1 36828U 10036A   25052.99763932 -.00000129  00000+0  00000+0 0  9990
2 36828  54.2691 167.3054 0044937 209.0594 240.9684  1.00258425 53286
BEIDOU-2 G4 (C04)       
1 37210U 10057A   25053.86048957 -.00000105  00000+0  00000+0 0  9993
2 37210   2.4554  70.4366 0007734 204.1082 348.2232  1.00272645 52489
BEIDOU-2 IGSO-2 (C07)   
1 37256U 10068A   25054.00511097 -.00000144  00000+0  00000+0 0  9995
2 37256  48.4150 277.7496 0038669 212.8276 132.7423  1.00272488 51986
BEIDOU-2 IGSO-3 (C08)   
1 37384U 11013A   25053.91305817 -.00000135  00000+0  00000+0 0  9998
2 37384  61.7273  44.6976 0031411 184.7085 358.4715  1.00295042 50856
BEIDOU-2 IGSO-4 (C09)   
1 37763U 11038A   25053.80037492 -.00000064  00000+0  00000+0 0  9996
2 37763  54.5737 169.9592 0134888 229.1220 135.4167  1.00255598 49847
BEIDOU-2 IGSO-5 (C10)   
1 37948U 11073A   25053.48741421 -.00000088  00000+0  00000+0 0  9994
2 37948  48.5522 277.4558 0100707 220.0748 286.9599  1.00275473 48329
BEIDOU-2 G5 (C05)       
1 38091U 12008A   25053.91183589  .00000063  00000+0  00000+0 0  9998
2 38091   2.3770  71.2419 0013258 246.3165 222.5414  1.00276144 47569
BEIDOU-2 M3 (C11)       
1 38250U 12018A   25053.15190631 -.00000064  00000+0  00000+0 0  9990
2 38250  56.1557 321.0027 0022596 273.5187  86.2658  1.86233717 87009
BEIDOU-2 M4 (C12)       
1 38251U 12018B   25053.08310009 -.00000063  00000+0  00000+0 0  9995
2 38251  56.0601 320.2575 0013638 279.8175  80.0719  1.86232183 87007
BEIDOU-2 M6 (C14)       
1 38775U 12050B   25053.32995096  .00000008  00000+0  00000+0 0  9992
2 38775  56.1213  78.8135 0013701 334.2958  25.6994  1.86231077 84370
BEIDOU-2 G6 (C02)       
1 38953U 12059A   25053.98725208 -.00000169  00000+0  00000+0 0  9996
2 38953   3.1992  78.4174 0010228 298.1063 216.0195  1.00270478 45245
BEIDOU-3S IGSO-1S (C31) 
1 40549U 15019A   25048.53129299 -.00000137  00000+0  00000+0 0  9997
2 40549  50.1105 301.2795 0033483 195.6570 293.7908  1.00250791 36212
BEIDOU-3S M2S (C58)     
1 40748U 15037A   25052.21096430 -.00000067  00000+0  00000+0 0  9990
2 40748  55.2853 318.5509 0009865 271.5672  88.3639  1.86229162 65164
BEIDOU-3S M1S (C57)     
1 40749U 15037B   25054.09077700 -.00000054  00000+0  00000+0 0  9994
2 40749  55.2804 318.4799 0004520   7.0430 353.0102  1.86253776 65185
BEIDOU-3S IGSO-2S (C56) 
1 40938U 15053A   25043.08725264 -.00000066  00000+0  00000+0 0  9997
2 40938  49.9805 264.5883 0052128 186.8108 174.8851  1.00251841 34448
BEIDOU-2 IGSO-6 (C13)   
1 41434U 16021A   25053.91951902 -.00000117  00000+0  00000+0 0  9995
2 41434  59.5491  42.8220 0054339 229.8674 307.4205  1.00266227 32676
BEIDOU-2 G7 (C03)       
1 41586U 16037A   25053.91886902 -.00000347  00000+0  00000+0 0  9992
2 41586   1.9804  68.2777 0009152 347.5109 178.5918  1.00269839  2088
BEIDOU-3 M1 (C19)       
1 43001U 17069A   25053.63267811  .00000011  00000+0  00000+0 0  9990
2 43001  56.2705  78.9329 0012086 301.2314  58.7144  1.86231331 49677
BEIDOU-3 M2 (C20)       
1 43002U 17069B   25053.57040883  .00000011  00000+0  00000+0 0  9992
2 43002  56.2702  78.9705 0009396 320.8071  39.1890  1.86230980 49669
BEIDOU-3 M7 (C27)       
1 43107U 18003A   25052.24331354 -.00000068  00000+0  00000+0 0  9999
2 43107  54.7439 319.0312 0004305  59.1978 300.8876  1.86232458 48394
BEIDOU-3 M8 (C28)       
1 43108U 18003B   25053.25970620 -.00000061  00000+0  00000+0 0  9990
2 43108  54.7360 318.9803 0003640 285.4918  74.5125  1.86230914 48421
BEIDOU-3 M4 (C22)       
1 43207U 18018A   25053.16387596  .00000006  00000+0  00000+0 0  9998
2 43207  56.2289  79.0290 0006219 340.2376  19.8013  1.86231284 47806
BEIDOU-3 M3 (C21)       
1 43208U 18018B   25053.23041048  .00000007  00000+0  00000+0 0  9997
2 43208  56.2285  79.0310 0009553 310.2673  49.7123  1.86231405 47806
BEIDOU-3 M9 (C29)       
1 43245U 18029A   25053.44942623 -.00000055  00000+0  00000+0 0  9996
2 43245  54.6189 316.6732 0001271 335.4888  24.5525  1.86232695 46961
BEIDOU-3 M10 (C30)      
1 43246U 18029B   25052.30596854 -.00000063  00000+0  00000+0 0  9991
2 43246  54.6169 316.7396 0005059   9.7903 350.2652  1.86228998 46921
BEIDOU-2 IGSO-7 (C16)   
1 43539U 18057A   25052.92024272 -.00000138  00000+0  00000+0 0  9998
2 43539  55.1601 167.2249 0084651 234.6323 192.9165  1.00292205 24305
BEIDOU-3 M5 (C23)       
1 43581U 18062A   25053.06849702  .00000052  00000+0  00000+0 0  9994
2 43581  54.1103 198.6282 0001501 318.8222  41.1320  1.86228719 44694
BEIDOU-3 M6 (C24)       
1 43582U 18062B   25052.39609435  .00000057  00000+0  00000+0 0  9992
2 43582  54.1098 198.6403 0006499  44.0270 315.9911  1.86229564 44681
BEIDOU-3 M12 (C26)      
1 43602U 18067A   25053.40476320  .00000048  00000+0  00000+0 0  9998
2 43602  54.2021 197.3102 0008230  36.5216 323.4988  1.86227830 44181
BEIDOU-3 M11 (C25)      
1 43603U 18067B   25053.53848705  .00000047  00000+0  00000+0 0  9992
2 43603  54.1994 197.2703 0004780  32.2165 327.7767  1.86227292 44216
BEIDOU-3 M13 (C32)      
1 43622U 18072A   25053.49850402  .00000009  00000+0  00000+0 0  9999
2 43622  56.2019  78.5413 0008664 298.9453  61.0312  1.86231175 43727
BEIDOU-3 M14 (C33)      
1 43623U 18072B   25053.36398220  .00000008  00000+0  00000+0 0  9990
2 43623  56.2036  78.5393 0006046 318.5542  41.4630  1.86231175 43718
BEIDOU-3 M16 (C35)      
1 43647U 18078A   25051.37707451 -.00000070  00000+0  00000+0 0  9991
2 43647  54.5167 316.8224 0008186  19.0197 341.0557  1.86232401 43188
BEIDOU-3 M15 (C34)      
1 43648U 18078B   25053.11714193 -.00000058  00000+0  00000+0 0  9993
2 43648  54.5110 316.7638 0005076  24.4176 335.6530  1.86232187 43234
BEIDOU-3 G1 (C59)       
1 43683U 18085A   25053.76919716 -.00000274  00000+0  00000+0 0  9999
2 43683   2.8153 101.2124 0002088 349.7793 118.7397  1.00266103 23253
BEIDOU-3 M17 (C36)      
1 43706U 18093A   25052.19690961  .00000058  00000+0  00000+0 0  9997
2 43706  54.1936 198.6146 0006472 293.9274  65.9715  1.86228436 42582
BEIDOU-3 M18 (C37)      
1 43707U 18093B   25052.06022479  .00000059  00000+0  00000+0 0  9998
2 43707  54.1944 198.6109 0005769 337.3102  22.6309  1.86229900 42577
BEIDOU-3 IGSO-1 (C38)   
1 44204U 19023A   25053.86344649 -.00000177  00000+0  00000+0 0  9992
2 44204  58.0135  42.6041 0022889 227.0857 313.7390  1.00279689  2409
BEIDOU-2 G8 (C01)       
1 44231U 19027A   25053.76919716 -.00000240  00000+0  00000+0 0  9999
2 44231   1.4001  74.4661 0005768 248.2912 251.5515  1.00272806 21276
BEIDOU-3 IGSO-2 (C39)   
1 44337U 19035A   25053.73011198 -.00000154  00000+0  00000+0 0  9993
2 44337  55.2005 163.0721 0036325 200.2969 169.7060  1.00261626 20866
BEIDOU-3 M24 (C46)      
1 44542U 19061A   25053.74150326  .00000048  00000+0  00000+0 0  9999
2 44542  54.4210 198.8981 0008296  16.8191 343.1721  1.86228992 36863
BEIDOU-3 M23 (C45)      
1 44543U 19061B   25051.72500185  .00000061  00000+0  00000+0 0  9993
2 44543  54.4198 198.9347 0004996  14.1944 346.5028  1.86229378 36839
BEIDOU-3 IGSO-3 (C40)   
1 44709U 19073A   25053.03852399 -.00000139  00000+0  00000+0 0  9990
2 44709  55.6206 286.0666 0041538 182.1593 177.9099  1.00280699 19641
BEIDOU-3 M22 (C44)      
1 44793U 19078A   25053.58517858 -.00000055  00000+0  00000+0 0  9993
2 44793  54.3621 316.6469 0007114  25.0669 335.0151  1.86232005 35717
BEIDOU-3 M21 (C43)      
1 44794U 19078B   25053.17904746 -.00000057  00000+0  00000+0 0  9997
2 44794  54.3358 316.6320 0005162  17.9164 342.1485  1.86227760 35713
BEIDOU-3 M19 (C41)      
1 44864U 19090A   25053.96027711  .00000014  00000+0  00000+0 0  9996
2 44864  56.1359  78.6838 0020021 284.3491  72.2050  1.86231623 35302
BEIDOU-3 M20 (C42)      
1 44865U 19090B   25053.82695758  .00000013  00000+0  00000+0 0  9993
2 44865  56.1375  78.7220 0017524 295.7925  61.0627  1.86231583 35287
BEIDOU-3 G2 (C60)       
1 45344U 20017A   25053.89199174 -.00000133  00000+0  00000+0 0  9999
2 45344   2.6777  37.7503 0003039 298.8315 217.6007  1.00271332 18457
BEIDOU-3 G3 (C61)       
1 45807U 20040A   25053.91775780 -.00000346  00000+0  00000+0 0  9991
2 45807   1.2929  60.7300 0003827 320.0957 213.0902  1.00267583 17266
BEIDOU-3 G4 (C62)       
1 56564U 23066A   25053.75114193 -.00000103  00000+0  00000+0 0  9992
2 56564   1.5030 290.0189 0001810 230.8073  62.5133  1.00272035  6588
BEIDOU-3 M28 (C50)      
1 58654U 23207A   25052.72360418 -.00000001  00000+0  00000+0 0  9997
2 58654  55.3223  78.5668 0004711 287.1849  72.8245  1.86232083  7897
BEIDOU-3 M26 (C48)      
1 58655U 23207B   25053.59709023  .00000008  00000+0  00000+0 0  9999
2 58655  55.3251  78.5231 0005571 273.7402  86.2594  1.86231577  7899
